NORAD_CAT_ID,OBJECT_NAME,OBJECT_TYPE,EPOCH,MEAN_MOTION,ECCENTRICITY,INCLINATION,RA_OF_ASC_NODE,ARG_OF_PERICENTER,MEAN_ANOMALY,BSTAR,MEAN_MOTION_DOT,MEAN_MOTION_DDOT,TLE_LINE0,TLE_LINE1,TLE_LINE2,SEMIMAJOR_AXIS,PERIOD,APOGEE,PERIGEE,DECAYED
51717.0,STARLINK-3445,PAYLOAD,2022-05-17 22:00:01,15.08867341,0.0001894,53.2212,97.0232,52.4425,21.3633,-0.00053223,-8.755e-05,0.0,0 STARLINK-3445,1 51717U 22016D   22137.91668981 -.00008755  00000-0 -53223-3 0  9990,2 51717  53.2212  97.0232 0001894  52.4425  21.3633 15.08867341  1300,6917.797,95.436,540.972,538.352,0.0
51717.0,STARLINK-3445,PAYLOAD,2022-05-18 06:00:00,15.08836691,0.0001987,53.2212,95.5289,46.7215,38.6595,0.001941,0.00030736,0.0,0 STARLINK-3445,1 51717U 22016D   22138.25001157  .00030736  00000-0  19410-2 0  9995,2 51717  53.2212  95.5289 0001987  46.7215  38.6595 15.08836691 14509,6917.891,95.438,541.13,538.381,0.0
51717.0,STARLINK-3445,PAYLOAD,2022-05-18 14:00:01,15.08865016,0.0001808,53.2212,94.0314,47.7212,49.25899999999999,-0.0031394,-0.0004994,0.0,0 STARLINK-3445,1 51717U 22016D   22138.58334491 -.00049940  00000-0 -31394-2 0  9995,2 51717  53.2212  94.0314 0001808  47.7212  49.2590 15.08865016  1302,6917.804,95.436,540.92,538.418,0.0
51717.0,STARLINK-3445,PAYLOAD,2022-05-18 20:00:01,15.08704111,0.0001938,53.2182,92.9092,46.7988,328.8737,0.011996,0.00195241,0.0,0 STARLINK-3445,1 51717U 22016D   22138.83334491  .00195241  00000-0  11996-1 0  9992,2 51717  53.2182  92.9092 0001938  46.7988 328.8737 15.08704111 14593,6918.295999999999,95.446,541.502,538.82,0.0
51717.0,STARLINK-3445,PAYLOAD,2022-05-18 22:00:00,15.08769336,0.0001997,53.2179,92.5354,46.0981,62.4283,0.0067479,0.00108554,0.0,0 STARLINK-3445,1 51717U 22016D   22138.91667824  .00108554  00000-0  67479-2 0  9999,2 51717  53.2179  92.5354 0001997  46.0981  62.4283 15.08769336  1309,6918.096,95.442,541.3430000000002,538.58,0.0
51717.0,STARLINK-3445,PAYLOAD,2022-05-19 06:00:00,15.08818071,0.0001798,53.2214,91.0406,42.8709,77.2941,0.0010664,0.00016714,0.0,0 STARLINK-3445,1 51717U 22016D   22139.25001157  .00016714  00000-0  10664-2 0  9998,2 51717  53.2214  91.0406 0001798  42.8709  77.2941 15.08818071 14650,6917.946999999999,95.439,541.056,538.569,0.0
51717.0,STARLINK-3445,PAYLOAD,2022-05-19 14:00:01,15.08838043,0.0001615,53.2212,89.5431,45.4109,86.3965,-6.320100000000001e-05,-1.294e-05,0.0,0 STARLINK-3445,1 51717U 22016D   22139.58335648 -.00001294  00000-0 -63201-4 0  9995,2 51717  53.2212  89.5431 0001615  45.4109  86.3965 15.08838043  1305,6917.886,95.438,540.869,538.634,0.0
51717.0,STARLINK-3445,PAYLOAD,2022-05-19 22:00:00,15.08872978,0.0001545,53.2214,88.0468,48.978,94.3543,-0.0031506,-0.00050126,0.0,0 STARLINK-3445,1 51717U 22016D   22139.91667824 -.00050126  00000-0 -31506-2 0  9995,2 51717  53.2214  88.0468 0001545  48.9780  94.3543 15.08872978  1302,6917.78,95.435,540.7130000000002,538.576,0.0
51717.0,STARLINK-3445,PAYLOAD,2022-05-20 14:00:01,15.08836634,0.0001554,53.2207,85.0547,46.7339,119.8115,-0.0012758,-0.00020533,0.0,0 STARLINK-3445,1 51717U 22016D   22140.58334491 -.00020533  00000-0 -12758-2 0  9998,2 51717  53.2207  85.0547 0001554  46.7339 119.8115 15.08836634 14856,6917.891,95.438,540.831,538.681,0.0
51717.0,STARLINK-3445,PAYLOAD,2022-05-20 22:00:00,15.08854612,0.0001558,53.2207,83.5585,52.2417,125.8779,-0.0019959,-0.00031925,0.0,0 STARLINK-3445,1 51717U 22016D   22140.91667824 -.00031925  00000-0 -19959-2 0  9991,2 51717  53.2207  83.5585 0001558  52.2417 125.8779 15.08854612  1309,6917.8359999999975,95.437,540.779,538.623,0.0
51717.0,STARLINK-3445,PAYLOAD,2022-05-21 06:00:00,15.08795772,0.000168,53.2206,82.0639,43.0912,146.6349,0.0035073,0.00055906,0.0,0 STARLINK-3445,1 51717U 22016D   22141.25001157  .00055906  00000-0  35073-2 0  9998,2 51717  53.2206  82.0639 0001680  43.0912 146.6349 15.08795772 14956,6918.016,95.44,541.043,538.7180000000002,0.0
51717.0,STARLINK-3445,PAYLOAD,2022-05-21 14:00:01,15.08844232,0.0001529,53.2203,80.566,48.0994,153.2643,-0.00047361,-7.818e-05,0.0,0 STARLINK-3445,1 51717U 22016D   22141.58335648 -.00007818  00000-0 -47361-3 0  9994,2 51717  53.2203  80.5660 0001529  48.0994 153.2643 15.08844232  1309,6917.8669999999975,95.437,540.79,538.675,0.0
51717.0,STARLINK-3445,PAYLOAD,2022-05-21 20:00:01,15.08842418,0.0001571,53.2204,79.4435,53.7077,66.294,0.00038743,5.884e-05,0.0,0 STARLINK-3445,1 51717U 22016D   22141.83334491  .00005884  00000-0  38743-3 0  9990,2 51717  53.2204  79.4435 0001571  53.7077  66.2940 15.08842418 15042,6917.873000000001,95.437,540.825,538.651,0.0
51717.0,STARLINK-3445,PAYLOAD,2022-05-21 22:00:00,15.08845778,0.0001602,53.2204,79.07,52.7878,160.1132,-0.00011045,-2.046e-05,0.0,0 STARLINK-3445,1 51717U 22016D   22141.91667824 -.00002046  00000-0 -11045-3 0  9993,2 51717  53.2204  79.0700 0001602  52.7878 160.1132 15.08845778  1309,6917.863,95.437,540.836,538.619,0.0
51717.0,STARLINK-3445,PAYLOAD,2022-05-22 14:00:01,15.08842789,0.0001609,53.2202,76.077,50.3612,185.7478,-0.0025556,-0.00040734,0.0,0 STARLINK-3445,1 51717U 22016D   22142.58334491 -.00040734  00000-0 -25556-2 0  9995,2 51717  53.2202  76.0770 0001609  50.3612 185.7478 15.08842789  1303,6917.871999999999,95.437,540.85,538.624,0.0
51717.0,STARLINK-3445,PAYLOAD,2022-05-22 22:00:01,15.08830462,0.0001713,53.2203,74.581,54.8426,192.9078,0.00032114,4.825e-05,0.0,0 STARLINK-3445,1 51717U 22016D   22142.91668981  .00004825  00000-0  32114-3 0  9994,2 51717  53.2203  74.5810 0001713  54.8426 192.9078 15.08830462 15205,6917.91,95.438,540.96,538.59,0.0
51717.0,STARLINK-3445,PAYLOAD,2022-05-23 14:00:01,15.08843223,0.000161,53.2205,71.58800000000002,50.2212,220.6384,-0.0023087,-0.00036847,0.0,0 STARLINK-3445,1 51717U 22016D   22143.58334491 -.00036847  00000-0 -23087-2 0  9993,2 51717  53.2205  71.5880 0001610  50.2212 220.6384 15.08843223  1304,6917.871,95.437,540.849,538.622,0.0
51717.0,STARLINK-3445,PAYLOAD,2022-05-23 22:00:01,15.08860222,0.0001656,53.2203,70.0916,52.4825,230.0315,-0.002487,-0.00039673,0.0,0 STARLINK-3445,1 51717U 22016D   22143.91668981 -.00039673  00000-0 -24870-2 0  9995,2 51717  53.2203  70.0916 0001656  52.4825 230.0315 15.08860222  1307,6917.819,95.436,540.8290000000002,538.538,0.0
51717.0,STARLINK-3445,PAYLOAD,2022-05-24 06:00:02,15.0880447,0.0001779,53.2207,68.5972,44.9268,249.1908,0.0029384,0.00046742,0.0,0 STARLINK-3445,1 51717U 22016D   22144.25002315  .00046742  00000-0  29384-2 0  9994,2 51717  53.2207  68.5972 0001779  44.9268 249.1908 15.08804470 15406,6917.989000000001,95.44,541.085,538.623,0.0
51717.0,STARLINK-3445,PAYLOAD,2022-05-24 14:00:01,15.08805583,0.0001661,53.2211,67.0991,51.0956,254.5394,0.0014123,0.00022239,0.0,0 STARLINK-3445,1 51717U 22016D   22144.58334491  .00022239  00000-0  14123-2 0  9993,2 51717  53.2211  67.0991 0001661  51.0956 254.5394 15.08805583  1308,6917.986,95.44,541.0,538.702,0.0
51717.0,STARLINK-3445,PAYLOAD,2022-05-24 22:00:00,15.08836968,0.0001742,53.2214,65.6035,52.9068,264.2836,-0.00054044,-8.878e-05,0.0,0 STARLINK-3445,1 51717U 22016D   22144.91667824 -.00008878  00000-0 -54044-3 0  9991,2 51717  53.2214  65.6035 0001742  52.9068 264.2836 15.08836968 15505,6917.89,95.438,540.96,538.55,0.0
51717.0,STARLINK-3445,PAYLOAD,2022-05-25 14:00:01,15.08822192,0.0001614,53.2209,62.6104,52.1878,288.1977,0.0012993,0.00020441,0.0,0 STARLINK-3445,1 51717U 22016D   22145.58334491  .00020441  00000-0  12993-2 0  9990,2 51717  53.2209  62.6104 0001614  52.1878 288.1977 15.08822192  1300,6917.935,95.439,540.9159999999998,538.683,0.0
51717.0,STARLINK-3445,PAYLOAD,2022-05-25 22:00:00,15.08854344,0.0001651,53.2205,61.115,50.5884,301.3759,-0.00070268,-0.00011458,0.0,0 STARLINK-3445,1 51717U 22016D   22145.91667824 -.00011458  00000-0 -70268-3 0  9996,2 51717  53.2205  61.1150 0001651  50.5884 301.3759 15.08854344 15654,6917.837,95.437,540.844,538.559,0.0
51717.0,STARLINK-3445,PAYLOAD,2022-05-26 14:00:01,15.0882554,0.0001516,53.22,58.1217,51.4403,323.7348,0.00059396,9.174e-05,0.0,0 STARLINK-3445,1 51717U 22016D   22146.58334491  .00009174  00000-0  59396-3 0  9990,2 51717  53.2200  58.1217 0001516  51.4403 323.7348 15.08825540  1301,6917.925,95.438,540.8380000000002,538.741,0.0
51717.0,STARLINK-3445,PAYLOAD,2022-05-26 22:00:00,15.08835888,0.0001683,53.2202,56.6265,52.4323,334.3191,-0.001141,-0.00018399,0.0,0 STARLINK-3445,1 51717U 22016D   22146.91667824 -.00018399  00000-0 -11410-2 0  9991,2 51717  53.2202  56.6265 0001683  52.4323 334.3191 15.08835888  1306,6917.893,95.438,540.922,538.594,0.0
51717.0,STARLINK-3445,PAYLOAD,2022-05-27 01:03:44,15.0882989,0.000176,53.223,56.0539,55.0416,305.0741,1.9882e-05,2.8e-07,0.0,0 STARLINK-3445,1 51717U 22016D   22147.04426270  .00000028  00000-0  19882-4 0  9995,2 51717  53.2230  56.0539 0001760  55.0416 305.0741 15.08829890 15827,6917.911,95.438,540.994,538.559,0.0
51717.0,STARLINK-3445,PAYLOAD,2022-05-27 14:00:01,15.08792039,0.0001672,53.2198,53.6331,58.12600000000001,351.7982,0.0028687,0.00045603,0.0,0 STARLINK-3445,1 51717U 22016D   22147.58334491  .00045603  00000-0  28687-2 0  9996,2 51717  53.2198  53.6331 0001672  58.1260 351.7982 15.08792039  1303,6918.026999999999,95.441,541.049,538.735,0.0
51717.0,STARLINK-3445,PAYLOAD,2022-05-27 21:43:45,15.08837616,0.000161,53.2217,52.1883,53.0512,307.0627,-6.7817e-06,-3.96e-06,0.0,0 STARLINK-3445,1 51717U 22016D   22147.90538263 -.00000396  00000-0 -67817-5 0  9998,2 51717  53.2217  52.1883 0001610  53.0512 307.0627 15.08837616 14829,6917.888000000001,95.438,540.866,538.639,0.0
51717.0,STARLINK-3445,PAYLOAD,2022-05-28 06:00:02,15.08826597,0.0001664,53.2195,50.6425,46.444,26.7044,0.0020517,0.00032504,0.0,0 STARLINK-3445,1 51717U 22016D   22148.25002315  .00032504  00000-0  20517-2 0  9998,2 51717  53.2195  50.6425 0001664  46.4440  26.7044 15.08826597 16011,6917.920999999999,95.438,540.937,538.635,0.0
